[
    {
        "Altitude(m)": 553468.3019734278,
        "Argument of Periapsis(deg)": 0.026491964442854003,
        "Eccentricity": 0.0,
        "Inclination(deg)": 53.0,
        "Latitude(deg)": 11.87517156314928,
        "Longitude(deg)": 110.88291903097533,
        "Mean Anomaly(deg)": 14.91187147031036,
        "RAAN(deg)": 204.96057347411204,
        "Satellite Name": "Starlink Shell 1 922",
        "Satellite Number": 922,
        "Semi-Major Axis(m)": 6931778.249405717,
        "Time(s)": 760
    },
    {
        "Altitude(m)": 553469.7036394966,
        "Argument of Periapsis(deg)": 0.02684054292236524,
        "Eccentricity": 0.0,
        "Inclination(deg)": 53.0,
        "Latitude(deg)": 12.372483893514394,
        "Longitude(deg)": 111.2356745447534,
        "Mean Anomaly(deg)": 15.538702673867107,
        "RAAN(deg)": 204.9600547040346,
        "Satellite Name": "Starlink Shell 1 922",
        "Satellite Number": 922,
        "Semi-Major Axis(m)": 6931778.249405717,
        "Time(s)": 770
    },
    {
        "Altitude(m)": 553473.6954483959,
        "Argument of Periapsis(deg)": 0.027189121401876473,
        "Eccentricity": 0.0,
        "Inclination(deg)": 53.0,
        "Latitude(deg)": 12.869210003540003,
        "Longitude(deg)": 111.58992512077964,
        "Mean Anomaly(deg)": 16.165533877423748,
        "RAAN(deg)": 204.95953593395714,
        "Satellite Name": "Starlink Shell 1 922",
        "Satellite Number": 922,
        "Semi-Major Axis(m)": 6931778.249405717,
        "Time(s)": 780
    },
    {
        "Altitude(m)": 553480.2526825982,
        "Argument of Periapsis(deg)": 0.02753769988138771,
        "Eccentricity": 0.0,
        "Inclination(deg)": 53.0,
        "Latitude(deg)": 13.365323012895377,
        "Longitude(deg)": 111.94573703903112,
        "Mean Anomaly(deg)": 16.79236508098042,
        "RAAN(deg)": 204.95901716387965,
        "Satellite Name": "Starlink Shell 1 922",
        "Satellite Number": 922,
        "Semi-Major Axis(m)": 6931778.249405717,
        "Time(s)": 790
    },
    {
        "Altitude(m)": 553489.3494558478,
        "Argument of Periapsis(deg)": 0.02788627836089895,
        "Eccentricity": 0.0,
        "Inclination(deg)": 53.0,
        "Latitude(deg)": 13.860795704812787,
        "Longitude(deg)": 112.30317674678544,
        "Mean Anomaly(deg)": 17.419196284537165,
        "RAAN(deg)": 204.9584983938022,
        "Satellite Name": "Starlink Shell 1 922",
        "Satellite Number": 922,
        "Semi-Major Axis(m)": 6931778.249405717,
        "Time(s)": 800
    },
    {
        "Altitude(m)": 553500.9587287145,
        "Argument of Periapsis(deg)": 0.02823485684041019,
        "Eccentricity": 0.0,
        "Inclination(deg)": 53.0,
        "Latitude(deg)": 14.355600510385818,
        "Longitude(deg)": 112.66231138986423,
        "Mean Anomaly(deg)": 18.046027488093937,
        "RAAN(deg)": 204.95797962372473,
        "Satellite Name": "Starlink Shell 1 922",
        "Satellite Number": 922,
        "Semi-Major Axis(m)": 6931778.249405717,
        "Time(s)": 810
    },
    {
        "Altitude(m)": 553515.05232473,
        "Argument of Periapsis(deg)": 0.028583435319921423,
        "Eccentricity": 0.0,
        "Inclination(deg)": 53.0,
        "Latitude(deg)": 14.849709492549264,
        "Longitude(deg)": 113.02320934390404,
        "Mean Anomaly(deg)": 18.67285869165061,
        "RAAN(deg)": 204.95746085364723,
        "Satellite Name": "Starlink Shell 1 922",
        "Satellite Number": 922,
        "Semi-Major Axis(m)": 6931778.249405717,
        "Time(s)": 820
    },
    {
        "Altitude(m)": 553531.6009470837,
        "Argument of Periapsis(deg)": 0.028932013799432665,
        "Eccentricity": 0.0,
        "Inclination(deg)": 53.0,
        "Latitude(deg)": 15.343094329728713,
        "Longitude(deg)": 113.3859392327666,
        "Mean Anomaly(deg)": 19.299689895207354,
        "RAAN(deg)": 204.95694208356974,
        "Satellite Name": "Starlink Shell 1 922",
        "Satellite Number": 922,
        "Semi-Major Axis(m)": 6931778.249405717,
        "Time(s)": 830
    },
    {
        "Altitude(m)": 553550.5741958364,
        "Argument of Periapsis(deg)": 0.029280592278943897,
        "Eccentricity": 0.0,
        "Inclination(deg)": 53.0,
        "Latitude(deg)": 15.835726299145149,
        "Longitude(deg)": 113.75057045981423,
        "Mean Anomaly(deg)": 19.926521098764,
        "RAAN(deg)": 204.95642331349228,
        "Satellite Name": "Starlink Shell 1 922",
        "Satellite Number": 922,
        "Semi-Major Axis(m)": 6931778.249405717,
        "Time(s)": 840
    },
    {
        "Altitude(m)": 553571.9405856862,
        "Argument of Periapsis(deg)": 0.029629170758455132,
        "Eccentricity": 0.0,
        "Inclination(deg)": 53.0,
        "Latitude(deg)": 16.327576259764218,
        "Longitude(deg)": 114.11717373915756,
        "Mean Anomaly(deg)": 20.55335230232077,
        "RAAN(deg)": 204.9559045434148,
        "Satellite Name": "Starlink Shell 1 922",
        "Satellite Number": 922,
        "Semi-Major Axis(m)": 6931778.249405717,
        "Time(s)": 850
    },
    {
        "Altitude(m)": 553595.6675642327,
        "Argument of Periapsis(deg)": 0.02997774923796637,
        "Eccentricity": 0.0,
        "Inclination(deg)": 53.0,
        "Latitude(deg)": 16.818614634876567,
        "Longitude(deg)": 114.48581994587717,
        "Mean Anomaly(deg)": 21.180183505877544,
        "RAAN(deg)": 204.95538577333733,
        "Satellite Name": "Starlink Shell 1 922",
        "Satellite Number": 922,
        "Semi-Major Axis(m)": 6931778.249405717,
        "Time(s)": 860
    },
    {
        "Altitude(m)": 553621.7215307981,
        "Argument of Periapsis(deg)": 0.030326327717477602,
        "Eccentricity": 0.0,
        "Inclination(deg)": 53.0,
        "Latitude(deg)": 17.308811394296523,
        "Longitude(deg)": 114.85658148762084,
        "Mean Anomaly(deg)": 21.80701470943419,
        "RAAN(deg)": 204.95486700325986,
        "Satellite Name": "Starlink Shell 1 922",
        "Satellite Number": 922,
        "Semi-Major Axis(m)": 6931778.249405717,
        "Time(s)": 870
    },
    {
        "Altitude(m)": 553650.0678557018,
        "Argument of Periapsis(deg)": 0.030674906196988847,
        "Eccentricity": 0.0,
        "Inclination(deg)": 53.0,
        "Latitude(deg)": 17.798136036168636,
        "Longitude(deg)": 115.22953115463073,
        "Mean Anomaly(deg)": 22.43384591299096,
        "RAAN(deg)": 204.95434823318237,
        "Satellite Name": "Starlink Shell 1 922",
        "Satellite Number": 922,
        "Semi-Major Axis(m)": 6931778.249405717,
        "Time(s)": 880
    },
    {
        "Altitude(m)": 553680.6709000351,
        "Argument of Periapsis(deg)": 0.031023484676500086,
        "Eccentricity": 0.0,
        "Inclination(deg)": 53.0,
        "Latitude(deg)": 18.28655756836693,
        "Longitude(deg)": 115.60474265059408,
        "Mean Anomaly(deg)": 23.060677116547602,
        "RAAN(deg)": 204.9538294631049,
        "Satellite Name": "Starlink Shell 1 922",
        "Satellite Number": 922,
        "Semi-Major Axis(m)": 6931778.249405717,
        "Time(s)": 890
    },
    {
        "Altitude(m)": 553713.494035963,
        "Argument of Periapsis(deg)": 0.03137206315601132,
        "Eccentricity": 0.0,
        "Inclination(deg)": 53.0,
        "Latitude(deg)": 18.77404448947783,
        "Longitude(deg)": 115.98229112330762,
        "Mean Anomaly(deg)": 23.68750832010435,
        "RAAN(deg)": 204.95331069302748,
        "Satellite Name": "Starlink Shell 1 922",
        "Satellite Number": 922,
        "Semi-Major Axis(m)": 6931778.249405717,
        "Time(s)": 900
    },
    {
        "Altitude(m)": 553748.4996674204,
        "Argument of Periapsis(deg)": 0.03172064163552255,
        "Eccentricity": 0.0,
        "Inclination(deg)": 53.0,
        "Latitude(deg)": 19.260564769353348,
        "Longitude(deg)": 116.36225218223824,
        "Mean Anomaly(deg)": 24.31433952366105,
        "RAAN(deg)": 204.95279192294998,
        "Satellite Name": "Starlink Shell 1 922",
        "Satellite Number": 922,
        "Semi-Major Axis(m)": 6931778.249405717,
        "Time(s)": 910
    },
    {
        "Altitude(m)": 553785.6492513272,
        "Argument of Periapsis(deg)": 0.0320692201150338,
        "Eccentricity": 0.0,
        "Inclination(deg)": 53.0,
        "Latitude(deg)": 19.746085829224025,
        "Longitude(deg)": 116.74470242868244,
        "Mean Anomaly(deg)": 24.941170727217767,
        "RAAN(deg)": 204.95227315287252,
        "Satellite Name": "Starlink Shell 1 922",
        "Satellite Number": 922,
        "Semi-Major Axis(m)": 6931778.249405717,
        "Time(s)": 920
    },
    {
        "Altitude(m)": 553824.9033192149,
        "Argument of Periapsis(deg)": 0.032417798594545036,
        "Eccentricity": 0.0,
        "Inclination(deg)": 53.0,
        "Latitude(deg)": 20.230574521358587,
        "Longitude(deg)": 117.12971998559614,
        "Mean Anomaly(deg)": 25.56800193077454,
        "RAAN(deg)": 204.95175438279503,
        "Satellite Name": "Starlink Shell 1 922",
        "Satellite Number": 922,
        "Semi-Major Axis(m)": 6931778.249405717,
        "Time(s)": 930
    },
    {
        "Altitude(m)": 553866.2214992992,
        "Argument of Periapsis(deg)": 0.03276637707405627,
        "Eccentricity": 0.0,
        "Inclination(deg)": 53.0,
        "Latitude(deg)": 20.71399710826298,
        "Longitude(deg)": 117.51738351416562,
        "Mean Anomaly(deg)": 26.194833134331237,
        "RAAN(deg)": 204.95123561271757,
        "Satellite Name": "Starlink Shell 1 922",
        "Satellite Number": 922,
        "Semi-Major Axis(m)": 6931778.249405717,
        "Time(s)": 940
    }
]